
# Worst residual: 49.42 km
# MJD 60910.000000 (2025 Aug 23  0:00)
ZTF1012 = A11nsbi = A11njyE = A11m53U
1 79879U 25000ZZF 25235.49919926  .00000000  00000-0  00000-0 0 27331
2 79879 017.8908 082.5994 5706443 033.2087 243.0229 01.01433689    01

# Worst residual: 57.23 km
# MJD 60911.000000 (2025 Aug 24  0:00)
ZTF1012 = A11nsbi = A11njyE = A11m53U
1 79879U 25000ZZF 25236.49919926  .00000000  00000-0  00000-0 0 27332
2 79879 017.8727 082.5255 5669747 033.7914 248.1653 01.01414156    04

# Worst residual: 69.53 km
# MJD 60912.000000 (2025 Aug 25  0:00)
ZTF1012 = A11nsbi = A11njyE = A11m53U
1 79879U 25000ZZF 25237.49919926  .00000000  00000-0  00000-0 0 27333
2 79879 017.8631 082.4683 5632013 034.3494 253.2351 01.01392756    01

# Worst residual: 77.38 km
# MJD 60913.000000 (2025 Aug 26  0:00)
ZTF1012 = A11nsbi = A11njyE = A11m53U
1 79879U 25000ZZF 25238.49919926  .00000000  00000-0  00000-0 0 27334
2 79879 017.8471 082.3946 5594192 034.9339 258.2266 01.01379970    06

# Worst residual: 89.49 km
# MJD 60914.000000 (2025 Aug 27  0:00)
ZTF1012 = A11nsbi = A11njyE = A11m53U
1 79879U 25000ZZF 25239.49919926  .00000000  00000-0  00000-0 0 27335
2 79879 017.8255 082.3091 5555038 035.5377 263.1572 01.01377447    04

# Worst residual: 96.35 km
# MJD 60915.000000 (2025 Aug 28  0:00)
ZTF1012 = A11nsbi = A11njyE = A11m53U
1 79879U 25000ZZF 25240.49919926  .00000000  00000-0  00000-0 0 27337
2 79879 017.8046 082.2309 5515249 036.1389 268.0933 01.01382856    08

# Worst residual: 91.99 km
# MJD 60916.000000 (2025 Aug 29  0:00)
ZTF1012 = A11nsbi = A11njyE = A11m53U
1 79879U 25000ZZF 25241.49919926  .00000000  00000-0  00000-0 0 27338
2 79879 017.7872 082.1518 5475958 036.7469 273.0270 01.01396701    06

# Worst residual: 103.09 km
# MJD 60917.000000 (2025 Aug 30  0:00)
ZTF1012 = A11nsbi = A11njyE = A11m53U
1 79879U 25000ZZF 25242.49919926  .00000000  00000-0  00000-0 0 27339
2 79879 017.7655 082.0528 5435266 037.3750 277.9633 01.01400239    01

# Worst residual: 102.35 km
# MJD 60918.000000 (2025 Aug 31  0:00)
ZTF1012 = A11nsbi = A11njyE = A11m53U
1 79879U 25000ZZF 25243.49919926  .00000000  00000-0  00000-0 0 27330
2 79879 017.7392 081.9442 5394943 038.0171 282.9045 01.01414348    02

# Worst residual: 106.52 km
# MJD 60919.000000 (2025 Sep  1  0:00)
ZTF1012 = A11nsbi = A11njyE = A11m53U
1 79879U 25000ZZF 25244.49919926  .00000000  00000-0  00000-0 0 27331
2 79879 017.7126 081.8488 5353528 038.6494 287.8425 01.01430472    06

# Worst residual: 106.63 km
# MJD 60920.000000 (2025 Sep  2  0:00)
ZTF1012 = A11nsbi = A11njyE = A11m53U
1 79879U 25000ZZF 25245.49919926  .00000000  00000-0  00000-0 0 27332
2 79879 017.6985 081.7617 5312059 039.2836 292.7804 01.01442181    08

# Worst residual: 102.57 km
# MJD 60921.000000 (2025 Sep  3  0:00)
ZTF1012 = A11nsbi = A11njyE = A11m53U
1 79879U 25000ZZF 25246.49919926  .00000000  00000-0  00000-0 0 27333
2 79879 017.6571 081.6444 5270858 039.9426 297.7369 01.01454984    03

# Worst residual: 105.30 km
# MJD 60922.000000 (2025 Sep  4  0:00)
ZTF1012 = A11nsbi = A11njyE = A11m53U
1 79879U 25000ZZF 25247.49919926  .00000000  00000-0  00000-0 0 27334
2 79879 017.6374 081.5329 5227504 040.6098 302.6742 01.01471969    02

# Worst residual: 101.76 km
# MJD 60923.000000 (2025 Sep  5  0:00)
ZTF1012 = A11nsbi = A11njyE = A11m53U
1 79879U 25000ZZF 25248.49919926  .00000000  00000-0  00000-0 0 27335
2 79879 017.6088 081.4128 5184833 041.2892 307.6216 01.01483741    08

# Worst residual: 105.83 km
# MJD 60924.000000 (2025 Sep  6  0:00)
ZTF1012 = A11nsbi = A11njyE = A11m53U
1 79879U 25000ZZF 25249.49919926  .00000000  00000-0  00000-0 0 27336
2 79879 017.5811 081.2989 5140066 041.9603 312.5745 01.01503232    01

# Worst residual: 108.75 km
# MJD 60925.000000 (2025 Sep  7  0:00)
ZTF1012 = A11nsbi = A11njyE = A11m53U
1 79879U 25000ZZF 25250.49919926  .00000000  00000-0  00000-0 0 27338
2 79879 017.5540 081.1971 5095373 042.6338 317.5270 01.01522113    00

# Worst residual: 113.88 km
# MJD 60926.000000 (2025 Sep  8  0:00)
ZTF1012 = A11nsbi = A11njyE = A11m53U
1 79879U 25000ZZF 25251.49919926  .00000000  00000-0  00000-0 0 27339
2 79879 017.5213 081.0404 5050153 043.3378 322.5079 01.01539613    02

# Worst residual: 115.44 km
# MJD 60927.000000 (2025 Sep  9  0:00)
ZTF1012 = A11nsbi = A11njyE = A11m53U
1 79879U 25000ZZF 25252.49919926  .00000000  00000-0  00000-0 0 27330
2 79879 017.4915 080.9050 5004707 044.0322 327.4893 01.01559577    05

# Worst residual: 115.65 km
# MJD 60928.000000 (2025 Sep 10  0:00)
ZTF1012 = A11nsbi = A11njyE = A11m53U
1 79879U 25000ZZF 25253.49919926  .00000000  00000-0  00000-0 0 27331
2 79879 017.4621 080.7681 4959090 044.7298 332.4775 01.01580106    06

# Worst residual: 114.75 km
# MJD 60929.000000 (2025 Sep 11  0:00)
ZTF1012 = A11nsbi = A11njyE = A11m53U
1 79879U 25000ZZF 25254.49919926  .00000000  00000-0  00000-0 0 27332
2 79879 017.4327 080.6297 4913263 045.4321 337.4697 01.01600652    05

# Worst residual: 111.31 km
# MJD 60930.000000 (2025 Sep 12  0:00)
ZTF1012 = A11nsbi = A11njyE = A11m53U
1 79879U 25000ZZF 25255.49919926  .00000000  00000-0  00000-0 0 27333
2 79879 017.4054 080.4889 4866530 046.1338 342.4668 01.01626596    06

# Worst residual: 109.70 km
# MJD 60931.000000 (2025 Sep 13  0:00)
ZTF1012 = A11nsbi = A11njyE = A11m53U
1 79879U 25000ZZF 25256.49919926  .00000000  00000-0  00000-0 0 27334
2 79879 017.3723 080.3456 4820512 046.8559 347.4624 01.01640431    00

# Worst residual: 106.86 km
# MJD 60932.000000 (2025 Sep 14  0:00)
ZTF1012 = A11nsbi = A11njyE = A11m53U
1 79879U 25000ZZF 25257.49919926  .00000000  00000-0  00000-0 0 27335
2 79879 017.3411 080.1977 4773413 047.5779 352.4651 01.01659493    03

# Worst residual: 102.05 km
# MJD 60933.000000 (2025 Sep 15  0:00)
ZTF1012 = A11nsbi = A11njyE = A11m53U
1 79879U 25000ZZF 25258.49919926  .00000000  00000-0  00000-0 0 27336
2 79879 017.3136 080.0949 4725499 048.2552 357.4748 01.01676368    05

# Worst residual: 101.75 km
# MJD 60934.000000 (2025 Sep 16  0:00)
ZTF1012 = A11nsbi = A11njyE = A11m53U
1 79879U 25000ZZF 25259.49919926  .00000000  00000-0  00000-0 0 27337
2 79879 017.2776 079.8903 4677783 049.0369 002.4909 01.01696187    04
